{{Infobox Planet  
| name = 376 Geometria
| image = 
| caption = 
| discovery=yes | physical_characteristics = yes | bgcolour=#FFFFC0
| discovery_ref = 
| discoverer = [[奥古斯特·沙卢瓦|奥古斯特·沙卢瓦]]
| discovery_site = [[尼斯|尼斯]]
| discovered =  1893年9月18日
| mp_name = 376
| alt_names = 1893 AM
| named_after = [[几何学|几何学]]
| mp_category=[[小行星带|主带小行星]]
| orbit_ref = <ref>[http://ssd.jpl.nasa.gov/sbdb.cgi?sstr=376 376 Geometria (1893 AM)]</ref>
| epoch = 2011年8月27日
| semimajor= 2.290244079106059AU
| perihelion=1.898883426820613AU
| aphelion=2.681604731391504[[天文单位|AU]]
| eccentricity =0.1708816347811294	
| period =1265.963197041161[[日|地球日]]<br>3.47[[年|地球年]] 
| inclination=5.428055024405164[[角度|°]]
| asc_node=302.1726130916193°	
| arg_peri=316.6317414550936°
| mean_anomaly=110.7666898976144°
| avg_speed=19.69 km/s
 | dimensions=34.91千米
 | mass=
 | density=
 | surface_grav=
 | escape_velocity=
 | rotation=7.74[[小时|小时]]
 | spectral_type=[[S-型小行星|S]]
 | magnitude=
 | abs_magnitude=9.49
 | albedo=0.2320	
 | single_temperature=
}}
'''小行星376'''（'''376 Geometria'''），是由[[法国|法国]][[天文学家|天文学家]][[奥古斯特·沙卢瓦|奥古斯特·沙卢瓦]]于1893年9月18日在法国[[尼斯|尼斯]]发现的[[小行星带|主带]][[小行星|小行星]]。

小行星376以[[几何学|几何学]]命名。

== 参考资料 ==
{{Reflist}}

{{Minor Planet Number|(375)[[小行星375|小行星375]]|(377)[[小行星377|小行星377]]}}

[[Category:小行星带天体|Category:小行星带天体]]
[[Category:1893年发现的小行星|Category:1893年发现的小行星]]
[[Category:S-型小行星|Category:S-型小行星]]